{"type": "FeatureCollection", "metadata": {"variable": "swh", "name": "Significant Wave Height", "unit": "m", "date": "2025-12-28", "hours": 4, "timestamps": ["2025-12-28T00:00:00", "2025-12-28T01:00:00", "2025-12-28T02:00:00", "2025-12-28T03:00:00"], "color_scale": {"vmin": 0, "vmax": 4, "colors": ["#3288bd", "#66c2a5", "#abdda4", "#e6f598", "#fee08b", "#fdae61", "#f46d43", "#d53e4f"]}}, "features": [{"type": "Feature", "geometry": {"type": "Point", "coordinates": [5.0, 53.0]}, "properties": {"value": 1.306, "time": "2025-12-28T00:00:00", "date": "2025-12-28", "hour": 0}}, {"type": "Feature", "geometry": {"type": "Point", "coordinates": [5.0, 53.5]}, "properties": {"value": 1.904, "time": "2025-12-28T00:00:00", "date": "2025-12-28", "hour": 0}}, {"type": "Feature", "geometry": {"type": "Point", "coordinates": [5.5, 53.5]}, "properties": {"value": 1.849, "time": "2025-12-28T00:00:00", "date": "2025-12-28", "hour": 0}}, {"type": "Feature", "geometry": {"type": "Point", "coordinates": [6.0, 53.5]}, "properties": {"value": 1.91, "time": "2025-12-28T00:00:00", "date": "2025-12-28", "hour": 0}}, {"type": "Feature", "geometry": {"type": "Point", "coordinates": [7.0, 53.5]}, "properties": {"value": 1.536, "time": "2025-12-28T00:00:00", "date": "2025-12-28", "hour": 0}}, {"type": "Feature", "geometry": {"type": "Point", "coordinates": [7.5, 53.5]}, "properties": {"value": 1.109, "time": "2025-12-28T00:00:00", "date": "2025-12-28", "hour": 0}}, {"type": "Feature", "geometry": {"type": "Point", "coordinates": [8.5, 53.5]}, "properties": {"value": 0.66, "time": "2025-12-28T00:00:00", "date": "2025-12-28", "hour": 0}}, {"type": "Feature", "geometry": {"type": "Point", "coordinates": [5.0, 54.0]}, "properties": {"value": 2.574, "time": "2025-12-28T00:00:00", "date": "2025-12-28", "hour": 0}}, {"type": "Feature", "geometry": {"type": "Point", "coordinates": [5.5, 54.0]}, "properties": {"value": 2.541, "time": "2025-12-28T00:00:00", "date": "2025-12-28", "hour": 0}}, {"type": "Feature", "geometry": {"type": "Point", "coordinates": [6.0, 54.0]}, "properties": {"value": 2.421, "time": "2025-12-28T00:00:00", "date": "2025-12-28", "hour": 0}}, {"type": "Feature", "geometry": {"type": "Point", "coordinates": [6.5, 54.0]}, "properties": {"value": 2.257, "time": "2025-12-28T00:00:00", "date": "2025-12-28", "hour": 0}}, {"type": "Feature", "geometry": {"type": "Point", "coordinates": [7.0, 54.0]}, "properties": {"value": 2.065, "time": "2025-12-28T00:00:00", "date": "2025-12-28", "hour": 0}}, {"type": "Feature", "geometry": {"type": "Point", "coordinates": [7.5, 54.0]}, "properties": {"value": 1.822, "time": "2025-12-28T00:00:00", "date": "2025-12-28", "hour": 0}}, {"type": "Feature", "geometry": {"type": "Point", "coordinates": [8.0, 54.0]}, "properties": {"value": 1.482, "time": "2025-12-28T00:00:00", "date": "2025-12-28", "hour": 0}}, {"type": "Feature", "geometry": {"type": "Point", "coordinates": [8.5, 54.0]}, "properties": {"value": 1.039, "time": "2025-12-28T00:00:00", "date": "2025-12-28", "hour": 0}}, {"type": "Feature", "geometry": {"type": "Point", "coordinates": [11.0, 54.0]}, "properties": {"value": 0.344, "time": "2025-12-28T00:00:00", "date": "2025-12-28", "hour": 0}}, {"type": "Feature", "geometry": {"type": "Point", "coordinates": [14.0, 54.0]}, "properties": {"value": 1.069, "time": "2025-12-28T00:00:00", "date": "2025-12-28", "hour": 0}}, {"type": "Feature", "geometry": {"type": "Point", "coordinates": [14.5, 54.0]}, "properties": {"value": 1.482, "time": "2025-12-28T00:00:00", "date": "2025-12-28", "hour": 0}}, {"type": "Feature", "geometry": {"type": "Point", "coordinates": [15.0, 54.0]}, "properties": {"value": 1.673, "time": "2025-12-28T00:00:00", "date": "2025-12-28", "hour": 0}}, {"type": "Feature", "geometry": {"type": "Point", "coordinates": [5.0, 54.5]}, "properties": {"value": 2.855, "time": "2025-12-28T00:00:00", "date": "2025-12-28", "hour": 0}}, {"type": "Feature", "geometry": {"type": "Point", "coordinates": [5.5, 54.5]}, "properties": {"value": 2.838, "time": "2025-12-28T00:00:00", "date": "2025-12-28", "hour": 0}}, {"type": "Feature", "geometry": {"type": "Point", "coordinates": [6.0, 54.5]}, "properties": {"value": 2.722, "time": "2025-12-28T00:00:00", "date": "2025-12-28", "hour": 0}}, {"type": "Feature", "geometry": {"type": "Point", "coordinates": [6.5, 54.5]}, "properties": {"value": 2.523, "time": "2025-12-28T00:00:00", "date": "2025-12-28", "hour": 0}}, {"type": "Feature", "geometry": {"type": "Point", "coordinates": [7.0, 54.5]}, "properties": {"value": 2.254, "time": "2025-12-28T00:00:00", "date": "2025-12-28", "hour": 0}}, {"type": "Feature", "geometry": {"type": "Point", "coordinates": [7.5, 54.5]}, "properties": {"value": 1.922, "time": "2025-12-28T00:00:00", "date": "2025-12-28", "hour": 0}}, {"type": "Feature", "geometry": {"type": "Point", "coordinates": [8.0, 54.5]}, "properties": {"value": 1.445, "time": "2025-12-28T00:00:00", "date": "2025-12-28", "hour": 0}}, {"type": "Feature", "geometry": {"type": "Point", "coordinates": [8.5, 54.5]}, "properties": {"value": 0.883, "time": "2025-12-28T00:00:00", "date": "2025-12-28", "hour": 0}}, {"type": "Feature", "geometry": {"type": "Point", "coordinates": [11.0, 54.5]}, "properties": {"value": 0.608, "time": "2025-12-28T00:00:00", "date": "2025-12-28", "hour": 0}}, {"type": "Feature", "geometry": {"type": "Point", "coordinates": [11.5, 54.5]}, "properties": {"value": 0.665, "time": "2025-12-28T00:00:00", "date": "2025-12-28", "hour": 0}}, {"type": "Feature", "geometry": {"type": "Point", "coordinates": [12.0, 54.5]}, "properties": {"value": 0.663, "time": "2025-12-28T00:00:00", "date": "2025-12-28", "hour": 0}}, {"type": "Feature", "geometry": {"type": "Point", "coordinates": [12.5, 54.5]}, "properties": {"value": 0.92, "time": "2025-12-28T00:00:00", "date": "2025-12-28", "hour": 0}}, {"type": "Feature", "geometry": {"type": "Point", "coordinates": [13.0, 54.5]}, "properties": {"value": 1.028, "time": "2025-12-28T00:00:00", "date": "2025-12-28", "hour": 0}}, {"type": "Feature", "geometry": {"type": "Point", "coordinates": [13.5, 54.5]}, "properties": {"value": 1.238, "time": "2025-12-28T00:00:00", "date": "2025-12-28", "hour": 0}}, {"type": "Feature", "geometry": {"type": "Point", "coordinates": [14.0, 54.5]}, "properties": {"value": 1.62, "time": "2025-12-28T00:00:00", "date": "2025-12-28", "hour": 0}}, {"type": "Feature", "geometry": {"type": "Point", "coordinates": [14.5, 54.5]}, "properties": {"value": 2.132, "time": "2025-12-28T00:00:00", "date": "2025-12-28", "hour": 0}}, {"type": "Feature", "geometry": {"type": "Point", "coordinates": [15.0, 54.5]}, "properties": {"value": 2.489, "time": "2025-12-28T00:00:00", "date": "2025-12-28", "hour": 0}}, {"type": "Feature", "geometry": {"type": "Point", "coordinates": [5.0, 55.0]}, "properties": {"value": 3.035, "time": "2025-12-28T00:00:00", "date": "2025-12-28", "hour": 0}}, {"type": "Feature", "geometry": {"type": "Point", "coordinates": [5.5, 55.0]}, "properties": {"value": 3.026, "time": "2025-12-28T00:00:00", "date": "2025-12-28", "hour": 0}}, {"type": "Feature", "geometry": {"type": "Point", "coordinates": [6.0, 55.0]}, "properties": {"value": 2.897, "time": "2025-12-28T00:00:00", "date": "2025-12-28", "hour": 0}}, {"type": "Feature", "geometry": {"type": "Point", "coordinates": [6.5, 55.0]}, "properties": {"value": 2.656, "time": "2025-12-28T00:00:00", "date": "2025-12-28", "hour": 0}}, {"type": "Feature", "geometry": {"type": "Point", "coordinates": [7.0, 55.0]}, "properties": {"value": 2.317, "time": "2025-12-28T00:00:00", "date": "2025-12-28", "hour": 0}}, {"type": "Feature", "geometry": {"type": "Point", "coordinates": [7.5, 55.0]}, "properties": {"value": 1.989, "time": "2025-12-28T00:00:00", "date": "2025-12-28", "hour": 0}}, {"type": "Feature", "geometry": {"type": "Point", "coordinates": [8.0, 55.0]}, "properties": {"value": 1.533, "time": "2025-12-28T00:00:00", "date": "2025-12-28", "hour": 0}}, {"type": "Feature", "geometry": {"type": "Point", "coordinates": [8.5, 55.0]}, "properties": {"value": 1.08, "time": "2025-12-28T00:00:00", "date": "2025-12-28", "hour": 0}}, {"type": "Feature", "geometry": {"type": "Point", "coordinates": [10.0, 55.0]}, "properties": {"value": 0.19, "time": "2025-12-28T00:00:00", "date": "2025-12-28", "hour": 0}}, {"type": "Feature", "geometry": {"type": "Point", "coordinates": [10.5, 55.0]}, "properties": {"value": 0.345, "time": "2025-12-28T00:00:00", "date": "2025-12-28", "hour": 0}}, {"type": "Feature", "geometry": {"type": "Point", "coordinates": [11.0, 55.0]}, "properties": {"value": 0.537, "time": "2025-12-28T00:00:00", "date": "2025-12-28", "hour": 0}}, {"type": "Feature", "geometry": {"type": "Point", "coordinates": [11.5, 55.0]}, "properties": {"value": 0.672, "time": "2025-12-28T00:00:00", "date": "2025-12-28", "hour": 0}}, {"type": "Feature", "geometry": {"type": "Point", "coordinates": [12.5, 55.0]}, "properties": {"value": 1.131, "time": "2025-12-28T00:00:00", "date": "2025-12-28", "hour": 0}}, {"type": "Feature", "geometry": {"type": "Point", "coordinates": [13.0, 55.0]}, "properties": {"value": 1.278, "time": "2025-12-28T00:00:00", "date": "2025-12-28", "hour": 0}}, {"type": "Feature", "geometry": {"type": "Point", "coordinates": [13.5, 55.0]}, "properties": {"value": 1.329, "time": "2025-12-28T00:00:00", "date": "2025-12-28", "hour": 0}}, {"type": "Feature", "geometry": {"type": "Point", "coordinates": [14.0, 55.0]}, "properties": {"value": 1.601, "time": "2025-12-28T00:00:00", "date": "2025-12-28", "hour": 0}}, {"type": "Feature", "geometry": {"type": "Point", "coordinates": [14.5, 55.0]}, "properties": {"value": 2.042, "time": "2025-12-28T00:00:00", "date": "2025-12-28", "hour": 0}}, {"type": "Feature", "geometry": {"type": "Point", "coordinates": [15.0, 55.0]}, "properties": {"value": 2.415, "time": "2025-12-28T00:00:00", "date": "2025-12-28", "hour": 0}}, {"type": "Feature", "geometry": {"type": "Point", "coordinates": [5.0, 53.0]}, "properties": {"value": 1.304, "time": "2025-12-28T01:00:00", "date": "2025-12-28", "hour": 1}}, {"type": "Feature", "geometry": {"type": "Point", "coordinates": [5.0, 53.5]}, "properties": {"value": 1.887, "time": "2025-12-28T01:00:00", "date": "2025-12-28", "hour": 1}}, {"type": "Feature", "geometry": {"type": "Point", "coordinates": [5.5, 53.5]}, "properties": {"value": 1.82, "time": "2025-12-28T01:00:00", "date": "2025-12-28", "hour": 1}}, {"type": "Feature", "geometry": {"type": "Point", "coordinates": [6.0, 53.5]}, "properties": {"value": 1.87, "time": "2025-12-28T01:00:00", "date": "2025-12-28", "hour": 1}}, {"type": "Feature", "geometry": {"type": "Point", "coordinates": [7.0, 53.5]}, "properties": {"value": 1.496, "time": "2025-12-28T01:00:00", "date": "2025-12-28", "hour": 1}}, {"type": "Feature", "geometry": {"type": "Point", "coordinates": [7.5, 53.5]}, "properties": {"value": 1.077, "time": "2025-12-28T01:00:00", "date": "2025-12-28", "hour": 1}}, {"type": "Feature", "geometry": {"type": "Point", "coordinates": [8.5, 53.5]}, "properties": {"value": 0.634, "time": "2025-12-28T01:00:00", "date": "2025-12-28", "hour": 1}}, {"type": "Feature", "geometry": {"type": "Point", "coordinates": [5.0, 54.0]}, "properties": {"value": 2.53, "time": "2025-12-28T01:00:00", "date": "2025-12-28", "hour": 1}}, {"type": "Feature", "geometry": {"type": "Point", "coordinates": [5.5, 54.0]}, "properties": {"value": 2.483, "time": "2025-12-28T01:00:00", "date": "2025-12-28", "hour": 1}}, {"type": "Feature", "geometry": {"type": "Point", "coordinates": [6.0, 54.0]}, "properties": {"value": 2.355, "time": "2025-12-28T01:00:00", "date": "2025-12-28", "hour": 1}}, {"type": "Feature", "geometry": {"type": "Point", "coordinates": [6.5, 54.0]}, "properties": {"value": 2.19, "time": "2025-12-28T01:00:00", "date": "2025-12-28", "hour": 1}}, {"type": "Feature", "geometry": {"type": "Point", "coordinates": [7.0, 54.0]}, "properties": {"value": 2.001, "time": "2025-12-28T01:00:00", "date": "2025-12-28", "hour": 1}}, {"type": "Feature", "geometry": {"type": "Point", "coordinates": [7.5, 54.0]}, "properties": {"value": 1.765, "time": "2025-12-28T01:00:00", "date": "2025-12-28", "hour": 1}}, {"type": "Feature", "geometry": {"type": "Point", "coordinates": [8.0, 54.0]}, "properties": {"value": 1.435, "time": "2025-12-28T01:00:00", "date": "2025-12-28", "hour": 1}}, {"type": "Feature", "geometry": {"type": "Point", "coordinates": [8.5, 54.0]}, "properties": {"value": 1.005, "time": "2025-12-28T01:00:00", "date": "2025-12-28", "hour": 1}}, {"type": "Feature", "geometry": {"type": "Point", "coordinates": [11.0, 54.0]}, "properties": {"value": 0.339, "time": "2025-12-28T01:00:00", "date": "2025-12-28", "hour": 1}}, {"type": "Feature", "geometry": {"type": "Point", "coordinates": [14.0, 54.0]}, "properties": {"value": 1.149, "time": "2025-12-28T01:00:00", "date": "2025-12-28", "hour": 1}}, {"type": "Feature", "geometry": {"type": "Point", "coordinates": [14.5, 54.0]}, "properties": {"value": 1.543, "time": "2025-12-28T01:00:00", "date": "2025-12-28", "hour": 1}}, {"type": "Feature", "geometry": {"type": "Point", "coordinates": [15.0, 54.0]}, "properties": {"value": 1.725, "time": "2025-12-28T01:00:00", "date": "2025-12-28", "hour": 1}}, {"type": "Feature", "geometry": {"type": "Point", "coordinates": [5.0, 54.5]}, "properties": {"value": 2.772, "time": "2025-12-28T01:00:00", "date": "2025-12-28", "hour": 1}}, {"type": "Feature", "geometry": {"type": "Point", "coordinates": [5.5, 54.5]}, "properties": {"value": 2.735, "time": "2025-12-28T01:00:00", "date": "2025-12-28", "hour": 1}}, {"type": "Feature", "geometry": {"type": "Point", "coordinates": [6.0, 54.5]}, "properties": {"value": 2.611, "time": "2025-12-28T01:00:00", "date": "2025-12-28", "hour": 1}}, {"type": "Feature", "geometry": {"type": "Point", "coordinates": [6.5, 54.5]}, "properties": {"value": 2.416, "time": "2025-12-28T01:00:00", "date": "2025-12-28", "hour": 1}}, {"type": "Feature", "geometry": {"type": "Point", "coordinates": [7.0, 54.5]}, "properties": {"value": 2.161, "time": "2025-12-28T01:00:00", "date": "2025-12-28", "hour": 1}}, {"type": "Feature", "geometry": {"type": "Point", "coordinates": [7.5, 54.5]}, "properties": {"value": 1.849, "time": "2025-12-28T01:00:00", "date": "2025-12-28", "hour": 1}}, {"type": "Feature", "geometry": {"type": "Point", "coordinates": [8.0, 54.5]}, "properties": {"value": 1.391, "time": "2025-12-28T01:00:00", "date": "2025-12-28", "hour": 1}}, {"type": "Feature", "geometry": {"type": "Point", "coordinates": [8.5, 54.5]}, "properties": {"value": 0.849, "time": "2025-12-28T01:00:00", "date": "2025-12-28", "hour": 1}}, {"type": "Feature", "geometry": {"type": "Point", "coordinates": [11.0, 54.5]}, "properties": {"value": 0.607, "time": "2025-12-28T01:00:00", "date": "2025-12-28", "hour": 1}}, {"type": "Feature", "geometry": {"type": "Point", "coordinates": [11.5, 54.5]}, "properties": {"value": 0.688, "time": "2025-12-28T01:00:00", "date": "2025-12-28", "hour": 1}}, {"type": "Feature", "geometry": {"type": "Point", "coordinates": [12.0, 54.5]}, "properties": {"value": 0.701, "time": "2025-12-28T01:00:00", "date": "2025-12-28", "hour": 1}}, {"type": "Feature", "geometry": {"type": "Point", "coordinates": [12.5, 54.5]}, "properties": {"value": 0.995, "time": "2025-12-28T01:00:00", "date": "2025-12-28", "hour": 1}}, {"type": "Feature", "geometry": {"type": "Point", "coordinates": [13.0, 54.5]}, "properties": {"value": 1.089, "time": "2025-12-28T01:00:00", "date": "2025-12-28", "hour": 1}}, {"type": "Feature", "geometry": {"type": "Point", "coordinates": [13.5, 54.5]}, "properties": {"value": 1.299, "time": "2025-12-28T01:00:00", "date": "2025-12-28", "hour": 1}}, {"type": "Feature", "geometry": {"type": "Point", "coordinates": [14.0, 54.5]}, "properties": {"value": 1.701, "time": "2025-12-28T01:00:00", "date": "2025-12-28", "hour": 1}}, {"type": "Feature", "geometry": {"type": "Point", "coordinates": [14.5, 54.5]}, "properties": {"value": 2.208, "time": "2025-12-28T01:00:00", "date": "2025-12-28", "hour": 1}}, {"type": "Feature", "geometry": {"type": "Point", "coordinates": [15.0, 54.5]}, "properties": {"value": 2.546, "time": "2025-12-28T01:00:00", "date": "2025-12-28", "hour": 1}}, {"type": "Feature", "geometry": {"type": "Point", "coordinates": [5.0, 55.0]}, "properties": {"value": 2.934, "time": "2025-12-28T01:00:00", "date": "2025-12-28", "hour": 1}}, {"type": "Feature", "geometry": {"type": "Point", "coordinates": [5.5, 55.0]}, "properties": {"value": 2.901, "time": "2025-12-28T01:00:00", "date": "2025-12-28", "hour": 1}}, {"type": "Feature", "geometry": {"type": "Point", "coordinates": [6.0, 55.0]}, "properties": {"value": 2.762, "time": "2025-12-28T01:00:00", "date": "2025-12-28", "hour": 1}}, {"type": "Feature", "geometry": {"type": "Point", "coordinates": [6.5, 55.0]}, "properties": {"value": 2.529, "time": "2025-12-28T01:00:00", "date": "2025-12-28", "hour": 1}}, {"type": "Feature", "geometry": {"type": "Point", "coordinates": [7.0, 55.0]}, "properties": {"value": 2.214, "time": "2025-12-28T01:00:00", "date": "2025-12-28", "hour": 1}}, {"type": "Feature", "geometry": {"type": "Point", "coordinates": [7.5, 55.0]}, "properties": {"value": 1.913, "time": "2025-12-28T01:00:00", "date": "2025-12-28", "hour": 1}}, {"type": "Feature", "geometry": {"type": "Point", "coordinates": [8.0, 55.0]}, "properties": {"value": 1.477, "time": "2025-12-28T01:00:00", "date": "2025-12-28", "hour": 1}}, {"type": "Feature", "geometry": {"type": "Point", "coordinates": [8.5, 55.0]}, "properties": {"value": 1.04, "time": "2025-12-28T01:00:00", "date": "2025-12-28", "hour": 1}}, {"type": "Feature", "geometry": {"type": "Point", "coordinates": [10.0, 55.0]}, "properties": {"value": 0.176, "time": "2025-12-28T01:00:00", "date": "2025-12-28", "hour": 1}}, {"type": "Feature", "geometry": {"type": "Point", "coordinates": [10.5, 55.0]}, "properties": {"value": 0.34, "time": "2025-12-28T01:00:00", "date": "2025-12-28", "hour": 1}}, {"type": "Feature", "geometry": {"type": "Point", "coordinates": [11.0, 55.0]}, "properties": {"value": 0.551, "time": "2025-12-28T01:00:00", "date": "2025-12-28", "hour": 1}}, {"type": "Feature", "geometry": {"type": "Point", "coordinates": [11.5, 55.0]}, "properties": {"value": 0.696, "time": "2025-12-28T01:00:00", "date": "2025-12-28", "hour": 1}}, {"type": "Feature", "geometry": {"type": "Point", "coordinates": [12.5, 55.0]}, "properties": {"value": 1.198, "time": "2025-12-28T01:00:00", "date": "2025-12-28", "hour": 1}}, {"type": "Feature", "geometry": {"type": "Point", "coordinates": [13.0, 55.0]}, "properties": {"value": 1.318, "time": "2025-12-28T01:00:00", "date": "2025-12-28", "hour": 1}}, {"type": "Feature", "geometry": {"type": "Point", "coordinates": [13.5, 55.0]}, "properties": {"value": 1.345, "time": "2025-12-28T01:00:00", "date": "2025-12-28", "hour": 1}}, {"type": "Feature", "geometry": {"type": "Point", "coordinates": [14.0, 55.0]}, "properties": {"value": 1.619, "time": "2025-12-28T01:00:00", "date": "2025-12-28", "hour": 1}}, {"type": "Feature", "geometry": {"type": "Point", "coordinates": [14.5, 55.0]}, "properties": {"value": 2.063, "time": "2025-12-28T01:00:00", "date": "2025-12-28", "hour": 1}}, {"type": "Feature", "geometry": {"type": "Point", "coordinates": [15.0, 55.0]}, "properties": {"value": 2.434, "time": "2025-12-28T01:00:00", "date": "2025-12-28", "hour": 1}}, {"type": "Feature", "geometry": {"type": "Point", "coordinates": [5.0, 53.0]}, "properties": {"value": 1.294, "time": "2025-12-28T02:00:00", "date": "2025-12-28", "hour": 2}}, {"type": "Feature", "geometry": {"type": "Point", "coordinates": [5.0, 53.5]}, "properties": {"value": 1.852, "time": "2025-12-28T02:00:00", "date": "2025-12-28", "hour": 2}}, {"type": "Feature", "geometry": {"type": "Point", "coordinates": [5.5, 53.5]}, "properties": {"value": 1.773, "time": "2025-12-28T02:00:00", "date": "2025-12-28", "hour": 2}}, {"type": "Feature", "geometry": {"type": "Point", "coordinates": [6.0, 53.5]}, "properties": {"value": 1.814, "time": "2025-12-28T02:00:00", "date": "2025-12-28", "hour": 2}}, {"type": "Feature", "geometry": {"type": "Point", "coordinates": [7.0, 53.5]}, "properties": {"value": 1.45, "time": "2025-12-28T02:00:00", "date": "2025-12-28", "hour": 2}}, {"type": "Feature", "geometry": {"type": "Point", "coordinates": [7.5, 53.5]}, "properties": {"value": 1.042, "time": "2025-12-28T02:00:00", "date": "2025-12-28", "hour": 2}}, {"type": "Feature", "geometry": {"type": "Point", "coordinates": [8.5, 53.5]}, "properties": {"value": 0.609, "time": "2025-12-28T02:00:00", "date": "2025-12-28", "hour": 2}}, {"type": "Feature", "geometry": {"type": "Point", "coordinates": [5.0, 54.0]}, "properties": {"value": 2.452, "time": "2025-12-28T02:00:00", "date": "2025-12-28", "hour": 2}}, {"type": "Feature", "geometry": {"type": "Point", "coordinates": [5.5, 54.0]}, "properties": {"value": 2.39, "time": "2025-12-28T02:00:00", "date": "2025-12-28", "hour": 2}}, {"type": "Feature", "geometry": {"type": "Point", "coordinates": [6.0, 54.0]}, "properties": {"value": 2.261, "time": "2025-12-28T02:00:00", "date": "2025-12-28", "hour": 2}}, {"type": "Feature", "geometry": {"type": "Point", "coordinates": [6.5, 54.0]}, "properties": {"value": 2.103, "time": "2025-12-28T02:00:00", "date": "2025-12-28", "hour": 2}}, {"type": "Feature", "geometry": {"type": "Point", "coordinates": [7.0, 54.0]}, "properties": {"value": 1.927, "time": "2025-12-28T02:00:00", "date": "2025-12-28", "hour": 2}}, {"type": "Feature", "geometry": {"type": "Point", "coordinates": [7.5, 54.0]}, "properties": {"value": 1.707, "time": "2025-12-28T02:00:00", "date": "2025-12-28", "hour": 2}}, {"type": "Feature", "geometry": {"type": "Point", "coordinates": [8.0, 54.0]}, "properties": {"value": 1.39, "time": "2025-12-28T02:00:00", "date": "2025-12-28", "hour": 2}}, {"type": "Feature", "geometry": {"type": "Point", "coordinates": [8.5, 54.0]}, "properties": {"value": 0.972, "time": "2025-12-28T02:00:00", "date": "2025-12-28", "hour": 2}}, {"type": "Feature", "geometry": {"type": "Point", "coordinates": [11.0, 54.0]}, "properties": {"value": 0.34, "time": "2025-12-28T02:00:00", "date": "2025-12-28", "hour": 2}}, {"type": "Feature", "geometry": {"type": "Point", "coordinates": [14.0, 54.0]}, "properties": {"value": 1.153, "time": "2025-12-28T02:00:00", "date": "2025-12-28", "hour": 2}}, {"type": "Feature", "geometry": {"type": "Point", "coordinates": [14.5, 54.0]}, "properties": {"value": 1.534, "time": "2025-12-28T02:00:00", "date": "2025-12-28", "hour": 2}}, {"type": "Feature", "geometry": {"type": "Point", "coordinates": [15.0, 54.0]}, "properties": {"value": 1.711, "time": "2025-12-28T02:00:00", "date": "2025-12-28", "hour": 2}}, {"type": "Feature", "geometry": {"type": "Point", "coordinates": [5.0, 54.5]}, "properties": {"value": 2.664, "time": "2025-12-28T02:00:00", "date": "2025-12-28", "hour": 2}}, {"type": "Feature", "geometry": {"type": "Point", "coordinates": [5.5, 54.5]}, "properties": {"value": 2.608, "time": "2025-12-28T02:00:00", "date": "2025-12-28", "hour": 2}}, {"type": "Feature", "geometry": {"type": "Point", "coordinates": [6.0, 54.5]}, "properties": {"value": 2.485, "time": "2025-12-28T02:00:00", "date": "2025-12-28", "hour": 2}}, {"type": "Feature", "geometry": {"type": "Point", "coordinates": [6.5, 54.5]}, "properties": {"value": 2.304, "time": "2025-12-28T02:00:00", "date": "2025-12-28", "hour": 2}}, {"type": "Feature", "geometry": {"type": "Point", "coordinates": [7.0, 54.5]}, "properties": {"value": 2.072, "time": "2025-12-28T02:00:00", "date": "2025-12-28", "hour": 2}}, {"type": "Feature", "geometry": {"type": "Point", "coordinates": [7.5, 54.5]}, "properties": {"value": 1.782, "time": "2025-12-28T02:00:00", "date": "2025-12-28", "hour": 2}}, {"type": "Feature", "geometry": {"type": "Point", "coordinates": [8.0, 54.5]}, "properties": {"value": 1.343, "time": "2025-12-28T02:00:00", "date": "2025-12-28", "hour": 2}}, {"type": "Feature", "geometry": {"type": "Point", "coordinates": [8.5, 54.5]}, "properties": {"value": 0.82, "time": "2025-12-28T02:00:00", "date": "2025-12-28", "hour": 2}}, {"type": "Feature", "geometry": {"type": "Point", "coordinates": [11.0, 54.5]}, "properties": {"value": 0.622, "time": "2025-12-28T02:00:00", "date": "2025-12-28", "hour": 2}}, {"type": "Feature", "geometry": {"type": "Point", "coordinates": [11.5, 54.5]}, "properties": {"value": 0.71, "time": "2025-12-28T02:00:00", "date": "2025-12-28", "hour": 2}}, {"type": "Feature", "geometry": {"type": "Point", "coordinates": [12.0, 54.5]}, "properties": {"value": 0.723, "time": "2025-12-28T02:00:00", "date": "2025-12-28", "hour": 2}}, {"type": "Feature", "geometry": {"type": "Point", "coordinates": [12.5, 54.5]}, "properties": {"value": 1.027, "time": "2025-12-28T02:00:00", "date": "2025-12-28", "hour": 2}}, {"type": "Feature", "geometry": {"type": "Point", "coordinates": [13.0, 54.5]}, "properties": {"value": 1.072, "time": "2025-12-28T02:00:00", "date": "2025-12-28", "hour": 2}}, {"type": "Feature", "geometry": {"type": "Point", "coordinates": [13.5, 54.5]}, "properties": {"value": 1.254, "time": "2025-12-28T02:00:00", "date": "2025-12-28", "hour": 2}}, {"type": "Feature", "geometry": {"type": "Point", "coordinates": [14.0, 54.5]}, "properties": {"value": 1.664, "time": "2025-12-28T02:00:00", "date": "2025-12-28", "hour": 2}}, {"type": "Feature", "geometry": {"type": "Point", "coordinates": [14.5, 54.5]}, "properties": {"value": 2.193, "time": "2025-12-28T02:00:00", "date": "2025-12-28", "hour": 2}}, {"type": "Feature", "geometry": {"type": "Point", "coordinates": [15.0, 54.5]}, "properties": {"value": 2.53, "time": "2025-12-28T02:00:00", "date": "2025-12-28", "hour": 2}}, {"type": "Feature", "geometry": {"type": "Point", "coordinates": [5.0, 55.0]}, "properties": {"value": 2.814, "time": "2025-12-28T02:00:00", "date": "2025-12-28", "hour": 2}}, {"type": "Feature", "geometry": {"type": "Point", "coordinates": [5.5, 55.0]}, "properties": {"value": 2.757, "time": "2025-12-28T02:00:00", "date": "2025-12-28", "hour": 2}}, {"type": "Feature", "geometry": {"type": "Point", "coordinates": [6.0, 55.0]}, "properties": {"value": 2.62, "time": "2025-12-28T02:00:00", "date": "2025-12-28", "hour": 2}}, {"type": "Feature", "geometry": {"type": "Point", "coordinates": [6.5, 55.0]}, "properties": {"value": 2.406, "time": "2025-12-28T02:00:00", "date": "2025-12-28", "hour": 2}}, {"type": "Feature", "geometry": {"type": "Point", "coordinates": [7.0, 55.0]}, "properties": {"value": 2.122, "time": "2025-12-28T02:00:00", "date": "2025-12-28", "hour": 2}}, {"type": "Feature", "geometry": {"type": "Point", "coordinates": [7.5, 55.0]}, "properties": {"value": 1.845, "time": "2025-12-28T02:00:00", "date": "2025-12-28", "hour": 2}}, {"type": "Feature", "geometry": {"type": "Point", "coordinates": [8.0, 55.0]}, "properties": {"value": 1.428, "time": "2025-12-28T02:00:00", "date": "2025-12-28", "hour": 2}}, {"type": "Feature", "geometry": {"type": "Point", "coordinates": [8.5, 55.0]}, "properties": {"value": 1.006, "time": "2025-12-28T02:00:00", "date": "2025-12-28", "hour": 2}}, {"type": "Feature", "geometry": {"type": "Point", "coordinates": [10.0, 55.0]}, "properties": {"value": 0.167, "time": "2025-12-28T02:00:00", "date": "2025-12-28", "hour": 2}}, {"type": "Feature", "geometry": {"type": "Point", "coordinates": [10.5, 55.0]}, "properties": {"value": 0.336, "time": "2025-12-28T02:00:00", "date": "2025-12-28", "hour": 2}}, {"type": "Feature", "geometry": {"type": "Point", "coordinates": [11.0, 55.0]}, "properties": {"value": 0.539, "time": "2025-12-28T02:00:00", "date": "2025-12-28", "hour": 2}}, {"type": "Feature", "geometry": {"type": "Point", "coordinates": [11.5, 55.0]}, "properties": {"value": 0.66, "time": "2025-12-28T02:00:00", "date": "2025-12-28", "hour": 2}}, {"type": "Feature", "geometry": {"type": "Point", "coordinates": [12.5, 55.0]}, "properties": {"value": 1.195, "time": "2025-12-28T02:00:00", "date": "2025-12-28", "hour": 2}}, {"type": "Feature", "geometry": {"type": "Point", "coordinates": [13.0, 55.0]}, "properties": {"value": 1.28, "time": "2025-12-28T02:00:00", "date": "2025-12-28", "hour": 2}}, {"type": "Feature", "geometry": {"type": "Point", "coordinates": [13.5, 55.0]}, "properties": {"value": 1.305, "time": "2025-12-28T02:00:00", "date": "2025-12-28", "hour": 2}}, {"type": "Feature", "geometry": {"type": "Point", "coordinates": [14.0, 55.0]}, "properties": {"value": 1.599, "time": "2025-12-28T02:00:00", "date": "2025-12-28", "hour": 2}}, {"type": "Feature", "geometry": {"type": "Point", "coordinates": [14.5, 55.0]}, "properties": {"value": 2.045, "time": "2025-12-28T02:00:00", "date": "2025-12-28", "hour": 2}}, {"type": "Feature", "geometry": {"type": "Point", "coordinates": [15.0, 55.0]}, "properties": {"value": 2.412, "time": "2025-12-28T02:00:00", "date": "2025-12-28", "hour": 2}}, {"type": "Feature", "geometry": {"type": "Point", "coordinates": [5.0, 53.0]}, "properties": {"value": 1.269, "time": "2025-12-28T03:00:00", "date": "2025-12-28", "hour": 3}}, {"type": "Feature", "geometry": {"type": "Point", "coordinates": [5.0, 53.5]}, "properties": {"value": 1.799, "time": "2025-12-28T03:00:00", "date": "2025-12-28", "hour": 3}}, {"type": "Feature", "geometry": {"type": "Point", "coordinates": [5.5, 53.5]}, "properties": {"value": 1.716, "time": "2025-12-28T03:00:00", "date": "2025-12-28", "hour": 3}}, {"type": "Feature", "geometry": {"type": "Point", "coordinates": [6.0, 53.5]}, "properties": {"value": 1.751, "time": "2025-12-28T03:00:00", "date": "2025-12-28", "hour": 3}}, {"type": "Feature", "geometry": {"type": "Point", "coordinates": [7.0, 53.5]}, "properties": {"value": 1.406, "time": "2025-12-28T03:00:00", "date": "2025-12-28", "hour": 3}}, {"type": "Feature", "geometry": {"type": "Point", "coordinates": [7.5, 53.5]}, "properties": {"value": 1.008, "time": "2025-12-28T03:00:00", "date": "2025-12-28", "hour": 3}}, {"type": "Feature", "geometry": {"type": "Point", "coordinates": [8.5, 53.5]}, "properties": {"value": 0.587, "time": "2025-12-28T03:00:00", "date": "2025-12-28", "hour": 3}}, {"type": "Feature", "geometry": {"type": "Point", "coordinates": [5.0, 54.0]}, "properties": {"value": 2.362, "time": "2025-12-28T03:00:00", "date": "2025-12-28", "hour": 3}}, {"type": "Feature", "geometry": {"type": "Point", "coordinates": [5.5, 54.0]}, "properties": {"value": 2.292, "time": "2025-12-28T03:00:00", "date": "2025-12-28", "hour": 3}}, {"type": "Feature", "geometry": {"type": "Point", "coordinates": [6.0, 54.0]}, "properties": {"value": 2.168, "time": "2025-12-28T03:00:00", "date": "2025-12-28", "hour": 3}}, {"type": "Feature", "geometry": {"type": "Point", "coordinates": [6.5, 54.0]}, "properties": {"value": 2.023, "time": "2025-12-28T03:00:00", "date": "2025-12-28", "hour": 3}}, {"type": "Feature", "geometry": {"type": "Point", "coordinates": [7.0, 54.0]}, "properties": {"value": 1.862, "time": "2025-12-28T03:00:00", "date": "2025-12-28", "hour": 3}}, {"type": "Feature", "geometry": {"type": "Point", "coordinates": [7.5, 54.0]}, "properties": {"value": 1.656, "time": "2025-12-28T03:00:00", "date": "2025-12-28", "hour": 3}}, {"type": "Feature", "geometry": {"type": "Point", "coordinates": [8.0, 54.0]}, "properties": {"value": 1.349, "time": "2025-12-28T03:00:00", "date": "2025-12-28", "hour": 3}}, {"type": "Feature", "geometry": {"type": "Point", "coordinates": [8.5, 54.0]}, "properties": {"value": 0.942, "time": "2025-12-28T03:00:00", "date": "2025-12-28", "hour": 3}}, {"type": "Feature", "geometry": {"type": "Point", "coordinates": [11.0, 54.0]}, "properties": {"value": 0.336, "time": "2025-12-28T03:00:00", "date": "2025-12-28", "hour": 3}}, {"type": "Feature", "geometry": {"type": "Point", "coordinates": [14.0, 54.0]}, "properties": {"value": 1.119, "time": "2025-12-28T03:00:00", "date": "2025-12-28", "hour": 3}}, {"type": "Feature", "geometry": {"type": "Point", "coordinates": [14.5, 54.0]}, "properties": {"value": 1.515, "time": "2025-12-28T03:00:00", "date": "2025-12-28", "hour": 3}}, {"type": "Feature", "geometry": {"type": "Point", "coordinates": [15.0, 54.0]}, "properties": {"value": 1.699, "time": "2025-12-28T03:00:00", "date": "2025-12-28", "hour": 3}}, {"type": "Feature", "geometry": {"type": "Point", "coordinates": [5.0, 54.5]}, "properties": {"value": 2.552, "time": "2025-12-28T03:00:00", "date": "2025-12-28", "hour": 3}}, {"type": "Feature", "geometry": {"type": "Point", "coordinates": [5.5, 54.5]}, "properties": {"value": 2.485, "time": "2025-12-28T03:00:00", "date": "2025-12-28", "hour": 3}}, {"type": "Feature", "geometry": {"type": "Point", "coordinates": [6.0, 54.5]}, "properties": {"value": 2.369, "time": "2025-12-28T03:00:00", "date": "2025-12-28", "hour": 3}}, {"type": "Feature", "geometry": {"type": "Point", "coordinates": [6.5, 54.5]}, "properties": {"value": 2.205, "time": "2025-12-28T03:00:00", "date": "2025-12-28", "hour": 3}}, {"type": "Feature", "geometry": {"type": "Point", "coordinates": [7.0, 54.5]}, "properties": {"value": 1.994, "time": "2025-12-28T03:00:00", "date": "2025-12-28", "hour": 3}}, {"type": "Feature", "geometry": {"type": "Point", "coordinates": [7.5, 54.5]}, "properties": {"value": 1.724, "time": "2025-12-28T03:00:00", "date": "2025-12-28", "hour": 3}}, {"type": "Feature", "geometry": {"type": "Point", "coordinates": [8.0, 54.5]}, "properties": {"value": 1.301, "time": "2025-12-28T03:00:00", "date": "2025-12-28", "hour": 3}}, {"type": "Feature", "geometry": {"type": "Point", "coordinates": [8.5, 54.5]}, "properties": {"value": 0.793, "time": "2025-12-28T03:00:00", "date": "2025-12-28", "hour": 3}}, {"type": "Feature", "geometry": {"type": "Point", "coordinates": [11.0, 54.5]}, "properties": {"value": 0.584, "time": "2025-12-28T03:00:00", "date": "2025-12-28", "hour": 3}}, {"type": "Feature", "geometry": {"type": "Point", "coordinates": [11.5, 54.5]}, "properties": {"value": 0.67, "time": "2025-12-28T03:00:00", "date": "2025-12-28", "hour": 3}}, {"type": "Feature", "geometry": {"type": "Point", "coordinates": [12.0, 54.5]}, "properties": {"value": 0.706, "time": "2025-12-28T03:00:00", "date": "2025-12-28", "hour": 3}}, {"type": "Feature", "geometry": {"type": "Point", "coordinates": [12.5, 54.5]}, "properties": {"value": 1.005, "time": "2025-12-28T03:00:00", "date": "2025-12-28", "hour": 3}}, {"type": "Feature", "geometry": {"type": "Point", "coordinates": [13.0, 54.5]}, "properties": {"value": 1.027, "time": "2025-12-28T03:00:00", "date": "2025-12-28", "hour": 3}}, {"type": "Feature", "geometry": {"type": "Point", "coordinates": [13.5, 54.5]}, "properties": {"value": 1.181, "time": "2025-12-28T03:00:00", "date": "2025-12-28", "hour": 3}}, {"type": "Feature", "geometry": {"type": "Point", "coordinates": [14.0, 54.5]}, "properties": {"value": 1.645, "time": "2025-12-28T03:00:00", "date": "2025-12-28", "hour": 3}}, {"type": "Feature", "geometry": {"type": "Point", "coordinates": [14.5, 54.5]}, "properties": {"value": 2.205, "time": "2025-12-28T03:00:00", "date": "2025-12-28", "hour": 3}}, {"type": "Feature", "geometry": {"type": "Point", "coordinates": [15.0, 54.5]}, "properties": {"value": 2.554, "time": "2025-12-28T03:00:00", "date": "2025-12-28", "hour": 3}}, {"type": "Feature", "geometry": {"type": "Point", "coordinates": [5.0, 55.0]}, "properties": {"value": 2.687, "time": "2025-12-28T03:00:00", "date": "2025-12-28", "hour": 3}}, {"type": "Feature", "geometry": {"type": "Point", "coordinates": [5.5, 55.0]}, "properties": {"value": 2.617, "time": "2025-12-28T03:00:00", "date": "2025-12-28", "hour": 3}}, {"type": "Feature", "geometry": {"type": "Point", "coordinates": [6.0, 55.0]}, "properties": {"value": 2.488, "time": "2025-12-28T03:00:00", "date": "2025-12-28", "hour": 3}}, {"type": "Feature", "geometry": {"type": "Point", "coordinates": [6.5, 55.0]}, "properties": {"value": 2.296, "time": "2025-12-28T03:00:00", "date": "2025-12-28", "hour": 3}}, {"type": "Feature", "geometry": {"type": "Point", "coordinates": [7.0, 55.0]}, "properties": {"value": 2.038, "time": "2025-12-28T03:00:00", "date": "2025-12-28", "hour": 3}}, {"type": "Feature", "geometry": {"type": "Point", "coordinates": [7.5, 55.0]}, "properties": {"value": 1.782, "time": "2025-12-28T03:00:00", "date": "2025-12-28", "hour": 3}}, {"type": "Feature", "geometry": {"type": "Point", "coordinates": [8.0, 55.0]}, "properties": {"value": 1.383, "time": "2025-12-28T03:00:00", "date": "2025-12-28", "hour": 3}}, {"type": "Feature", "geometry": {"type": "Point", "coordinates": [8.5, 55.0]}, "properties": {"value": 0.974, "time": "2025-12-28T03:00:00", "date": "2025-12-28", "hour": 3}}, {"type": "Feature", "geometry": {"type": "Point", "coordinates": [10.0, 55.0]}, "properties": {"value": 0.159, "time": "2025-12-28T03:00:00", "date": "2025-12-28", "hour": 3}}, {"type": "Feature", "geometry": {"type": "Point", "coordinates": [10.5, 55.0]}, "properties": {"value": 0.316, "time": "2025-12-28T03:00:00", "date": "2025-12-28", "hour": 3}}, {"type": "Feature", "geometry": {"type": "Point", "coordinates": [11.0, 55.0]}, "properties": {"value": 0.484, "time": "2025-12-28T03:00:00", "date": "2025-12-28", "hour": 3}}, {"type": "Feature", "geometry": {"type": "Point", "coordinates": [11.5, 55.0]}, "properties": {"value": 0.581, "time": "2025-12-28T03:00:00", "date": "2025-12-28", "hour": 3}}, {"type": "Feature", "geometry": {"type": "Point", "coordinates": [12.5, 55.0]}, "properties": {"value": 1.14, "time": "2025-12-28T03:00:00", "date": "2025-12-28", "hour": 3}}, {"type": "Feature", "geometry": {"type": "Point", "coordinates": [13.0, 55.0]}, "properties": {"value": 1.222, "time": "2025-12-28T03:00:00", "date": "2025-12-28", "hour": 3}}, {"type": "Feature", "geometry": {"type": "Point", "coordinates": [13.5, 55.0]}, "properties": {"value": 1.272, "time": "2025-12-28T03:00:00", "date": "2025-12-28", "hour": 3}}, {"type": "Feature", "geometry": {"type": "Point", "coordinates": [14.0, 55.0]}, "properties": {"value": 1.597, "time": "2025-12-28T03:00:00", "date": "2025-12-28", "hour": 3}}, {"type": "Feature", "geometry": {"type": "Point", "coordinates": [14.5, 55.0]}, "properties": {"value": 2.053, "time": "2025-12-28T03:00:00", "date": "2025-12-28", "hour": 3}}, {"type": "Feature", "geometry": {"type": "Point", "coordinates": [15.0, 55.0]}, "properties": {"value": 2.419, "time": "2025-12-28T03:00:00", "date": "2025-12-28", "hour": 3}}]}